<?xml version="1.0" encoding="UTF-8"?>
<osm version="0.6" generator="Overpass API 0.7.55.3 9da5e7ae">
<note>The data included in this document is from www.openstreetmap.org. The data is made available under ODbL.</note>
<meta osm_base="2018-06-16T20:39:02Z"/>

  <node id="2434739253" lat="18.7966953" lon="98.9526011" version="8" timestamp="2018-01-18T15:57:17Z" changeset="55553283" uid="7492991" user="kittiya">
    <tag k="bench" v="yes"/>
    <tag k="covered" v="no"/>
    <tag k="highway" v="bus_stop"/>
    <tag k="name" v="จุดจอดรถม่วง"/>
    <tag k="opening_hours" v="07:00-21:00"/>
    <tag k="operator" v="ขส.มช."/>
    <tag k="shelter" v="yes"/>
  </node>
  <node id="2434763308" lat="18.7958400" lon="98.9569530" version="2" timestamp="2013-08-28T06:25:58Z" changeset="17548561" uid="1727314" user="Phonecyber 'Hack">
    <tag k="highway" v="bus_stop"/>
    <tag k="name" v="จุดจอดรถม่วง"/>
  </node>
  <node id="2434765955" lat="18.7960150" lon="98.9569670" version="2" timestamp="2013-08-28T06:25:58Z" changeset="17548561" uid="1727314" user="Phonecyber 'Hack">
    <tag k="highway" v="bus_stop"/>
    <tag k="name" v="จุดจอดรถม่วง"/>
  </node>
  <node id="2434770159" lat="18.7946180" lon="98.9589280" version="3" timestamp="2016-08-21T06:53:33Z" changeset="41587767" uid="4436617" user="Ponlawat">
    <tag k="highway" v="bus_stop"/>
    <tag k="name" v="จุดจอดรถม่วง &lt;หน้าคณะเกษตรศาสตร์&gt;"/>
  </node>
  <node id="2434773964" lat="18.7922640" lon="98.9586540" version="3" timestamp="2013-08-28T06:55:42Z" changeset="17548917" uid="1727383" user="Ratchapoom">
    <tag k="highway" v="bus_stop"/>
    <tag k="name" v="Bus Station (Line2)"/>
    <tag k="note" v="Open 7.00 a.m.  Close 9.55 p.m."/>
  </node>
  <node id="2434781037" lat="18.7944862" lon="98.9571539" version="3" timestamp="2014-07-20T07:18:28Z" changeset="24248991" uid="346601" user="Russ McD">
    <tag k="highway" v="bus_stop"/>
    <tag k="name" v="จุดจอดรถม่วง"/>
  </node>
  <node id="2434784899" lat="18.7935561" lon="98.9548248" version="2" timestamp="2013-08-28T06:39:56Z" changeset="17548732" uid="1727383" user="Ratchapoom">
    <tag k="highway" v="bus_stop"/>
    <tag k="name" v="จุดจอดรถม่วง"/>
  </node>
  <node id="2434787253" lat="18.7980757" lon="98.9552546" version="3" timestamp="2017-02-12T12:31:16Z" changeset="46018246" uid="5293451" user="Noshyaar">
    <tag k="highway" v="bus_stop"/>
    <tag k="name" v="จุดจอดรถม่วง"/>
  </node>
  <node id="2434788893" lat="18.7995450" lon="98.9537230" version="2" timestamp="2013-08-28T06:26:45Z" changeset="17548573" uid="1727314" user="Phonecyber 'Hack">
    <tag k="highway" v="bus_stop"/>
    <tag k="name" v="จุดจอดรถม่วง"/>
  </node>
  <node id="2434791371" lat="18.8025538" lon="98.9543754" version="3" timestamp="2017-06-13T15:39:44Z" changeset="49504322" uid="6163706" user="WalkerEmp">
    <tag k="highway" v="bus_stop"/>
    <tag k="name" v="จุดจอดรถม่วง"/>
  </node>
  <node id="2434791738" lat="18.8002312" lon="98.9534206" version="3" timestamp="2016-08-21T07:09:37Z" changeset="41587969" uid="4436617" user="Ponlawat">
    <tag k="bench" v="yes"/>
    <tag k="highway" v="bus_stop"/>
    <tag k="name" v="อมช. สาย 3"/>
    <tag k="shelter" v="yes"/>
  </node>
  <node id="2434808603" lat="18.7934306" lon="98.9544713" version="1" timestamp="2013-08-28T06:39:56Z" changeset="17548732" uid="1727383" user="Ratchapoom">
    <tag k="highway" v="bus_stop"/>
    <tag k="name" v="Bus Stop"/>
  </node>
  <node id="2434809621" lat="18.7981374" lon="98.9482003" version="2" timestamp="2014-11-05T04:57:05Z" changeset="26563550" uid="2444954" user="J'Ja">
    <tag k="highway" v="bus_stop"/>
    <tag k="name" v="คณะสถาปัตยกรรมศาสตร์ สาย 4"/>
    <tag k="operator" v="7.00-21.00 น."/>
  </node>
  <node id="2434815654" lat="18.8015571" lon="98.9511730" version="4" timestamp="2016-08-21T07:04:46Z" changeset="41587900" uid="4436617" user="Ponlawat">
    <tag k="bench" v="yes"/>
    <tag k="covered" v="yes"/>
    <tag k="highway" v="bus_stop"/>
    <tag k="name" v="สหกรณ์มหาวิทยาลัยเชียงใหม่ สาย 1, 3, 4"/>
    <tag k="operator" v="7.00-21.00 น."/>
    <tag k="shelter" v="yes"/>
  </node>
  <node id="2434815656" lat="18.8075672" lon="98.9540738" version="1" timestamp="2013-08-28T06:55:42Z" changeset="17548917" uid="1727383" user="Ratchapoom">
    <tag k="highway" v="bus_stop"/>
  </node>
  <node id="2434815657" lat="18.8063396" lon="98.9556091" version="1" timestamp="2013-08-28T06:55:42Z" changeset="17548917" uid="1727383" user="Ratchapoom">
    <tag k="highway" v="bus_stop"/>
  </node>
  <node id="3167968625" lat="18.7996030" lon="98.9526997" version="1" timestamp="2014-11-05T05:02:18Z" changeset="26563638" uid="2444954" user="J'Ja">
    <tag k="highway" v="bus_stop"/>
    <tag k="name" v="หอพักหญิงอาคาร3 สาย 4"/>
    <tag k="operator" v="7.00-21.00 น."/>
  </node>
  <node id="3167972703" lat="18.7975382" lon="98.9532228" version="1" timestamp="2014-11-05T05:00:33Z" changeset="26563609" uid="2444954" user="J'Ja">
    <tag k="highway" v="bus_stop"/>
    <tag k="name" v="หอพักชายอาคาร4 สาย 4"/>
    <tag k="operator" v="7.00-21.00 น."/>
  </node>
  <node id="3167975394" lat="18.8030242" lon="98.9504173" version="2" timestamp="2016-08-21T07:01:04Z" changeset="41587858" uid="4436617" user="Ponlawat">
    <tag k="bench" v="no"/>
    <tag k="covered" v="no"/>
    <tag k="highway" v="bus_stop"/>
    <tag k="name" v="คณะสังคมศาสตร์ สาย 3, 4"/>
    <tag k="operator" v="7.00-21.00"/>
    <tag k="shelter" v="no"/>
  </node>
  <node id="3167977045" lat="18.8040372" lon="98.9489131" version="1" timestamp="2014-11-05T05:07:12Z" changeset="26563712" uid="2444954" user="J'Ja">
    <tag k="highway" v="bus_stop"/>
    <tag k="name" v="คณะนิติศาสตร์ สาย 4"/>
    <tag k="operator" v="7.00-21.00 น."/>
  </node>
  <node id="3167977788" lat="18.8018026" lon="98.9486169" version="3" timestamp="2016-08-21T07:04:09Z" changeset="41587895" uid="4436617" user="Ponlawat">
    <tag k="bench" v="no"/>
    <tag k="covered" v="no"/>
    <tag k="highway" v="bus_stop"/>
    <tag k="name" v="คณะการสื่อสารมวลชน สาย 4"/>
    <tag k="operator" v="7.00-21.00 น."/>
    <tag k="shelter" v="no"/>
  </node>
  <node id="3167978928" lat="18.8011466" lon="98.9499884" version="1" timestamp="2014-11-05T05:09:51Z" changeset="26563748" uid="2444954" user="J'Ja">
    <tag k="highway" v="bus_stop"/>
    <tag k="name" v="คณะเศรษฐศาสตร์ สาย 4"/>
    <tag k="operator" v="7.00-21.00 น."/>
  </node>
  <node id="3167979588" lat="18.7987771" lon="98.9507997" version="2" timestamp="2017-02-12T10:50:08Z" changeset="46016169" uid="5293451" user="Noshyaar">
    <tag k="highway" v="bus_stop"/>
    <tag k="name" v="ศูนย์การเรียนรู้ สาย 4"/>
    <tag k="opening_hours" v="07:00-21:00"/>
    <tag k="operator" v="Chiang Mai University"/>
  </node>
  <node id="3195112871" lat="18.7992037" lon="98.9533097" version="1" timestamp="2014-11-19T04:57:47Z" changeset="26879586" uid="2472071" user="lesaku">
    <tag k="highway" v="bus_stop"/>
    <tag k="name" v="จุดจอดรถม่วงสาย 1"/>
    <tag k="note" v="สถานีต่อไป - สนามบาสเกตบอล"/>
  </node>
  <node id="3195112872" lat="18.7971100" lon="98.9533788" version="1" timestamp="2014-11-19T04:57:47Z" changeset="26879586" uid="2472071" user="lesaku">
    <tag k="highway" v="bus_stop"/>
    <tag k="name" v="จุดจอดรถม่วงสาย 1"/>
    <tag k="note" v="สถานีต่อไป - โรงเรียนสาธิตมหาวิทยาลัยเชียงใหม่"/>
  </node>
  <node id="3195112873" lat="18.7958033" lon="98.9542169" version="2" timestamp="2015-02-22T07:25:48Z" changeset="29014777" uid="2692377" user="ManopStreet">
    <tag k="bench" v="no"/>
    <tag k="covered" v="no"/>
    <tag k="highway" v="bus_stop"/>
    <tag k="name" v="จุดจอด สาขาวิชาคหกรรมศาสตร์ คณะศึกษาศาสตร์"/>
    <tag k="note" v="สถานีต่อไป - ศึกษาศาสตร์"/>
    <tag k="operator" v="ขส.มช."/>
    <tag k="shelter" v="no"/>
  </node>
  <node id="3195112874" lat="18.7935812" lon="98.9549071" version="1" timestamp="2014-11-19T04:57:47Z" changeset="26879586" uid="2472071" user="lesaku">
    <tag k="highway" v="bus_stop"/>
    <tag k="name" v="จุดจอดรถม่วงสาย 1"/>
    <tag k="note" v="สถานีต่อไป - ศึกษาศาสตร์"/>
    <tag k="shelter" v="no"/>
  </node>
  <node id="3195112875" lat="18.7934523" lon="98.9545676" version="1" timestamp="2014-11-19T04:57:47Z" changeset="26879586" uid="2472071" user="lesaku">
    <tag k="highway" v="bus_stop"/>
    <tag k="name" v="จุดจอดรถม่วงสาย 1"/>
    <tag k="note" v="สถานีต่อไป - โรงเรียนสาธิตมหาวิทยาลัยเชียงใหม่"/>
  </node>
  <node id="3195112876" lat="18.7958981" lon="98.9540249" version="3" timestamp="2017-01-07T09:20:54Z" changeset="44974665" uid="5086663" user="msrisu">
    <tag k="bench" v="no"/>
    <tag k="covered" v="no"/>
    <tag k="highway" v="bus_stop"/>
    <tag k="name" v="โรงเรียนสาธิตมหาวิทยาลัยเชียงใหม่"/>
    <tag k="note" v="สถานีต่อไป - หอพักชายอาคาร 4"/>
    <tag k="operator" v="ขส.มช."/>
    <tag k="shelter" v="no"/>
  </node>
  <node id="3195112877" lat="18.7975005" lon="98.9532326" version="1" timestamp="2014-11-19T04:57:47Z" changeset="26879586" uid="2472071" user="lesaku">
    <tag k="highway" v="bus_stop"/>
    <tag k="name" v="จุดจอดรถม่วงสาย 1"/>
    <tag k="note" v="สถานีต่อไป - หอพักหญิงอาคาร 3"/>
  </node>
  <node id="3195112878" lat="18.7993727" lon="98.9527400" version="2" timestamp="2015-02-22T07:12:27Z" changeset="29014659" uid="2692377" user="ManopStreet">
    <tag k="bench" v="no"/>
    <tag k="covered" v="no"/>
    <tag k="highway" v="bus_stop"/>
    <tag k="name" v="จุดเปลี่ยนถ่ายรถ ขส.มช. (สถานีหอพักหญิงอาคาร 3)"/>
    <tag k="operator" v="ขส.มช."/>
    <tag k="shelter" v="no"/>
  </node>
  <node id="3195112879" lat="18.8040855" lon="98.9528066" version="3" timestamp="2017-12-02T13:59:36Z" changeset="54270238" uid="6800905" user="Wichaya Pokasuwanna">
    <tag k="highway" v="bus_stop"/>
    <tag k="name" v="จุดจอดรถม่วงสาย 1, 3"/>
    <tag k="note" v="สถานีต่อไป - สนามรักบี้"/>
  </node>
  <node id="3195112880" lat="18.8062770" lon="98.9555893" version="1" timestamp="2014-11-19T04:57:47Z" changeset="26879586" uid="2472071" user="lesaku">
    <tag k="highway" v="bus_stop"/>
    <tag k="name" v="จุดจอดรถม่วงสาย 1"/>
    <tag k="note" v="สถานีต่อไป - หน้ามอ"/>
  </node>
  <node id="3195112881" lat="18.8076104" lon="98.9546478" version="1" timestamp="2014-11-19T04:57:47Z" changeset="26879586" uid="2472071" user="lesaku">
    <tag k="highway" v="bus_stop"/>
    <tag k="name" v="จุดจอดรถม่วงสาย 1"/>
    <tag k="note" v="สถานีต่อไป - ศาลาอ่างแก้ว จุดให้บริการคำปรึกษา"/>
  </node>
  <node id="3195112882" lat="18.8062770" lon="98.9538090" version="1" timestamp="2014-11-19T04:57:48Z" changeset="26879586" uid="2472071" user="lesaku">
    <tag k="highway" v="bus_stop"/>
    <tag k="name" v="จุดจอดรถม่วงสาย 1"/>
    <tag k="note" v="สถานีต่อไป - สำนักงานมหาวิทยาลัย"/>
  </node>
  <node id="3195112883" lat="18.8049683" lon="98.9544202" version="3" timestamp="2015-01-29T16:03:28Z" changeset="28488547" uid="2609597" user="sinaphong">
    <tag k="highway" v="bus_stop"/>
    <tag k="note" v="สถานีต่อไป - สำนักเทคโนโลยีสารสนเทศ"/>
  </node>
  <node id="3195112884" lat="18.8040005" lon="98.9528094" version="2" timestamp="2017-12-02T13:59:36Z" changeset="54270238" uid="6800905" user="Wichaya Pokasuwanna">
    <tag k="highway" v="bus_stop"/>
    <tag k="name" v="จุดจอดรถม่วงสาย 1"/>
    <tag k="note" v="สถานีต่อไป - สำนักหอสมุด"/>
  </node>
  <node id="3195112885" lat="18.8016785" lon="98.9512897" version="3" timestamp="2016-08-21T07:04:46Z" changeset="41587900" uid="4436617" user="Ponlawat">
    <tag k="bench" v="yes"/>
    <tag k="covered" v="yes"/>
    <tag k="highway" v="bus_stop"/>
    <tag k="name" v="สำนักหอสมุด สาย 1, 4"/>
    <tag k="note" v="สถานีต่อไป - อาคารเรียนรวม"/>
    <tag k="shelter" v="yes"/>
  </node>
  <node id="3195112886" lat="18.8002930" lon="98.9516515" version="1" timestamp="2014-11-19T04:57:48Z" changeset="26879586" uid="2472071" user="lesaku">
    <tag k="highway" v="bus_stop"/>
    <tag k="name" v="จุดจอดรถม่วงสาย 1"/>
    <tag k="note" v="สถานีต่อไป - สนามวอลเลย์บอล"/>
  </node>
  <node id="4239074138" lat="18.7989172" lon="98.9575534" version="1" timestamp="2016-06-12T10:56:15Z" changeset="39968576" uid="61891" user="stephankn">
    <tag k="access" v="customers"/>
    <tag k="highway" v="bus_stop"/>
    <tag k="operator" v="Chiang Mai University"/>
  </node>
  <node id="4359723993" lat="18.8051700" lon="98.9502488" version="1" timestamp="2016-08-21T06:57:12Z" changeset="41587813" uid="4436617" user="Ponlawat">
    <tag k="bench" v="no"/>
    <tag k="covered" v="no"/>
    <tag k="highway" v="bus_stop"/>
    <tag k="name" v="อ่างแก้ว สาย 3"/>
    <tag k="shelter" v="no"/>
  </node>

</osm>
